[{"OBJECT_NAME":"ALSAT-1B","OBJECT_ID":"2016-059C","EPOCH":"2026-03-10T00:15:52.612704","MEAN_MOTION":14.72190019,"ECCENTRICITY":0.00091536,"INCLINATION":97.7807,"RA_OF_ASC_NODE":82.042,"ARG_OF_PERICENTER":176.3903,"MEAN_ANOMALY":183.7372,"EPHEMERIS_TYPE":0,"CLASSIFICATION_TYPE":"U","NORAD_CAT_ID":41785,"ELEMENT_SET_NO":999,"REV_AT_EPOCH":50598,"BSTAR":0.00016894626,"MEAN_MOTION_DOT":1.018e-5,"MEAN_MOTION_DDOT":0},{"OBJECT_NAME":"COSMOS 2251 DEB","OBJECT_ID":"1993-036TW","EPOCH":"2026-03-09T23:49:15.077568","MEAN_MOTION":14.5748859,"ECCENTRICITY":0.00742544,"INCLINATION":73.9762,"RA_OF_ASC_NODE":263.1439,"ARG_OF_PERICENTER":68.9309,"MEAN_ANOMALY":82.1219,"EPHEMERIS_TYPE":0,"CLASSIFICATION_TYPE":"U","NORAD_CAT_ID":34477,"ELEMENT_SET_NO":999,"REV_AT_EPOCH":89896,"BSTAR":0.00074528968,"MEAN_MOTION_DOT":3.488e-5,"MEAN_MOTION_DDOT":0}]
